GLOBALSTAR M057         
1 25943U 99058A   25164.93146499 -.00000048  00000+0  41107-3 0  9995
2 25943  52.0004 357.4447 0002989  26.4620 333.6382 12.24821763166601
GLOBALSTAR M059         
1 25944U 99058B   25164.86782446 -.00000023  00000+0  77878-3 0  9993
2 25944  51.9996 216.1543 0000563 261.6037 268.8265 11.99979677573643
GLOBALSTAR M056         
1 25945U 99058C   25164.88130171 -.00000016  00000+0  83197-3 0  9991
2 25945  51.9943 218.1620 0001373 176.5785 356.6227 12.04781537162223
GLOBALSTAR M031         
1 25946U 99058D   25164.57296910 -.00000134  00000+0 -44299-3 0  9994
2 25946  51.9954 111.5493 0000962 161.5195   9.3109 12.16036609164344
GLOBALSTAR M039         
1 25961U 99062A   25165.55201476 -.00000039  00000+0  36108-3 0  9991
2 25961  51.9851 276.7439 0002152 351.4225   8.6604 12.62328175179912
GLOBALSTAR M034         
1 25962U 99062B   25165.34740222 -.00000002  00000+0  12614-2 0  9991
2 25962  51.9896  18.7688 0014779  37.9393 132.8086 11.79447300138044
GLOBALSTAR M029         
1 25963U 99062C   25164.54371859 -.00000092  00000+0 -77971-4 0  9998
2 25963  51.9796 105.0677 0002547 100.2835  70.7967 11.99897638168683
GLOBALSTAR M061         
1 25964U 99062D   25165.05350903 -.00000080  00000+0 -39811-5 0  9992
2 25964  51.9770 203.5276 0005952 315.5406  57.6958 11.76776254121108
